{
  "norad_id": 66986,
  "name": "STARLINK-36135",
  "history": [
    {
      "epoch": "2026-03-28T19:50:03.664320",
      "apogee_km": 484.2820951647782,
      "perigee_km": 481.7322195501374,
      "latitude_deg": 21.33068778148709,
      "longitude_deg": -122.06259520002641,
      "semi_major_axis_km": 6861.1441573574575,
      "eccentricity": 0.00018582,
      "inclination_deg": 43.0015,
      "raan_deg": 275.4151,
      "arg_perigee_deg": 261.3575,
      "mean_anomaly_deg": 98.7066,
      "mean_motion_rev_day": 15.27594006
    }
  ]
}